{
    "links": {
        "self": "http://www.neowsapp.com/rest/v1/neo/3797492?api_key=iIulBulltgU6a56xZRHN4H3l9WmuAYTsLGpBGhQ2"
    },
    "id": "3797492",
    "neo_reference_id": "3797492",
    "name": "(2018 AY3)",
    "designation": "2018 AY3",
    "nasa_jpl_url": "http://ssd.jpl.nasa.gov/sbdb.cgi?sstr=3797492",
    "absolute_magnitude_h": 27.0,
    "estimated_diameter": {
        "kilometers": {
            "estimated_diameter_min": 0.0105816886,
            "estimated_diameter_max": 0.023661375
        },
        "meters": {
            "estimated_diameter_min": 10.5816885933,
            "estimated_diameter_max": 23.6613750114
        },
        "miles": {
            "estimated_diameter_min": 0.0065751544,
            "estimated_diameter_max": 0.0147024923
        },
        "feet": {
            "estimated_diameter_min": 34.7168272045,
            "estimated_diameter_max": 77.6291855923
        }
    },
    "is_potentially_hazardous_asteroid": false,
    "close_approach_data": [
        {
            "close_approach_date": "2018-01-05",
            "close_approach_date_full": "2018-Jan-05 05:14",
            "epoch_date_close_approach": 1515129240000,
            "relative_velocity": {
                "kilometers_per_second": "7.3260901573",
                "kilometers_per_hour": "26373.9245664499",
                "miles_per_hour": "16387.7310729699"
            },
            "miss_distance": {
                "astronomical": "0.0324057932",
                "lunar": "12.6058535548",
                "kilometers": "4847837.638380484",
                "miles": "3012306.6259753192"
            },
            "orbiting_body": "Earth"
        },
        {
            "close_approach_date": "2165-06-20",
            "close_approach_date_full": "2165-Jun-20 07:15",
            "epoch_date_close_approach": 6168381300000,
            "relative_velocity": {
                "kilometers_per_second": "9.9408176173",
                "kilometers_per_hour": "35786.9434222688",
                "miles_per_hour": "22236.6149281314"
            },
            "miss_distance": {
                "astronomical": "0.0866914959",
                "lunar": "33.7229919051",
                "kilometers": "12968863.133753733",
                "miles": "8058477.8747301954"
            },
            "orbiting_body": "Mars"
        }
    ],
    "orbital_data": {
        "orbit_id": "2",
        "orbit_determination_date": "2019-07-19 05:26:31",
        "first_observation_date": "2018-01-13",
        "last_observation_date": "2018-01-15",
        "data_arc_in_days": 2,
        "observations_used": 26,
        "orbit_uncertainty": "8",
        "minimum_orbit_intersection": ".0250819",
        "jupiter_tisserand_invariant": "4.184",
        "epoch_osculation": "2458133.5",
        "eccentricity": ".406603627203644",
        "semi_major_axis": "1.646657951472105",
        "inclination": "5.254320313578009",
        "ascending_node_longitude": "112.4764329452853",
        "orbital_period": "771.7977716400811",
        "perihelion_distance": ".9771208556398254",
        "perihelion_argument": "325.047918542248",
        "aphelion_distance": "2.316195047304385",
        "perihelion_time": "2458101.814250643526",
        "mean_anomaly": "14.7796096172847",
        "mean_motion": ".4664434301682356",
        "equinox": "J2000",
        "orbit_class": {
            "orbit_class_type": "APO",
            "orbit_class_description": "Near-Earth asteroid orbits which cross the Earth’s orbit similar to that of 1862 Apollo",
            "orbit_class_range": "a (semi-major axis) > 1.0 AU; q (perihelion) < 1.017 AU"
        }
    },
    "is_sentry_object": false
}